{
  "type": "FeatureCollection",
  "features": [
    {
      "type": "Feature",
      "properties": {
        "norad_id": 33924,
        "name": "COSMOS 2251 DEB",
        "group": "cosmos-2251-debris",
        "lat": 49.21813591817198,
        "lon": -92.33526766889521,
        "alt_km": 1256.4597893167102,
        "timestamp": "2025-12-26T11:25:45.583770+00:00",
        "meta_object_name": "COSMOS 2251 DEB",
        "meta_object_id": "1993-036ED",
        "meta_epoch": "2025-12-26T02:16:38.971200",
        "meta_mean_motion": 13.5024041,
        "meta_eccentricity": 0.0403775,
        "meta_inclination": 73.9129,
        "meta_ra_of_asc_node": 248.7342,
        "meta_arg_of_pericenter": 281.827,
        "meta_mean_anomaly": 73.7826,
        "meta_ephemeris_type": 0,
        "meta_classification_type": "U",
        "meta_norad_cat_id": 33924,
        "meta_element_set_no": 999,
        "meta_rev_at_epoch": 82919,
        "meta_bstar": 0.0004136,
        "meta_mean_motion_dot": 4.14e-06,
        "meta_mean_motion_ddot": 0,
        "tle_line1": "1 33924U 93036ED  25360.09489550  .00000414  00000+0  41360-3 0  9993",
        "tle_line2": "2 33924  73.9129 248.7342 0403775 281.8270  73.7826 13.50240410829190"
      },
      "geometry": {
        "type": "Point",
        "coordinates": [
          -92.33526766889521,
          49.21813591817198
        ]
      }
    },
    {
      "type": "Feature",
      "properties": {
        "norad_id": 33928,
        "name": "COSMOS 2251 DEB",
        "group": "cosmos-2251-debris",
        "lat": 72.86601233791035,
        "lon": 95.98067551809042,
        "alt_km": 752.4682094182499,
        "timestamp": "2025-12-26T11:25:45.583779+00:00",
        "meta_object_name": "COSMOS 2251 DEB",
        "meta_object_id": "1993-036EH",
        "meta_epoch": "2025-12-26T02:44:57.437952",
        "meta_mean_motion": 14.47429117,
        "meta_eccentricity": 0.0062081,
        "meta_inclination": 73.9252,
        "meta_ra_of_asc_node": 27.3827,
        "meta_arg_of_pericenter": 318.8033,
        "meta_mean_anomaly": 40.8447,
        "meta_ephemeris_type": 0,
        "meta_classification_type": "U",
        "meta_norad_cat_id": 33928,
        "meta_element_set_no": 999,
        "meta_rev_at_epoch": 88838,
        "meta_bstar": 0.00025718,
        "meta_mean_motion_dot": 9.37e-06,
        "meta_mean_motion_ddot": 0,
        "tle_line1": "1 33928U 93036EH  25360.11455368  .00000937  00000+0  25718-3 0  9999",
        "tle_line2": "2 33928  73.9252  27.3827 0062081 318.8033  40.8447 14.47429117888389"
      },
      "geometry": {
        "type": "Point",
        "coordinates": [
          95.98067551809042,
          72.86601233791035
        ]
      }
    },
    {
      "type": "Feature",
      "properties": {
        "norad_id": 33932,
        "name": "COSMOS 2251 DEB",
        "group": "cosmos-2251-debris",
        "lat": 24.80124776548999,
        "lon": 102.98069394637257,
        "alt_km": 783.7639282151185,
        "timestamp": "2025-12-26T11:25:45.583788+00:00",
        "meta_object_name": "COSMOS 2251 DEB",
        "meta_object_id": "1993-036EM",
        "meta_epoch": "2025-12-25T21:22:01.559712",
        "meta_mean_motion": 14.38795551,
        "meta_eccentricity": 0.0035993,
        "meta_inclination": 74.0343,
        "meta_ra_of_asc_node": 291.6628,
        "meta_arg_of_pericenter": 4.7374,
        "meta_mean_anomaly": 355.4113,
        "meta_ephemeris_type": 0,
        "meta_classification_type": "U",
        "meta_norad_cat_id": 33932,
        "meta_element_set_no": 999,
        "meta_rev_at_epoch": 88187,
        "meta_bstar": 0.00047028,
        "meta_mean_motion_dot": 1.43e-05,
        "meta_mean_motion_ddot": 0,
        "tle_line1": "1 33932U 93036EM  25359.89029583  .00001430  00000+0  47028-3 0  9990",
        "tle_line2": "2 33932  74.0343 291.6628 0035993   4.7374 355.4113 14.38795551881873"
      },
      "geometry": {
        "type": "Point",
        "coordinates": [
          102.98069394637257,
          24.80124776548999
        ]
      }
    },
    {
      "type": "Feature",
      "properties": {
        "norad_id": 33933,
        "name": "COSMOS 2251 DEB",
        "group": "cosmos-2251-debris",
        "lat": 70.10795316920091,
        "lon": 163.06919355496876,
        "alt_km": 749.2030526025728,
        "timestamp": "2025-12-26T11:25:45.583797+00:00",
        "meta_object_name": "COSMOS 2251 DEB",
        "meta_object_id": "1993-036EN",
        "meta_epoch": "2025-12-26T02:35:10.951296",
        "meta_mean_motion": 14.33508908,
        "meta_eccentricity": 0.0071059,
        "meta_inclination": 74.0887,
        "meta_ra_of_asc_node": 35.772,
        "meta_arg_of_pericenter": 40.2085,
        "meta_mean_anomaly": 320.4292,
        "meta_ephemeris_type": 0,
        "meta_classification_type": "U",
        "meta_norad_cat_id": 33933,
        "meta_element_set_no": 999,
        "meta_rev_at_epoch": 87976,
        "meta_bstar": 0.00026196,
        "meta_mean_motion_dot": 7.2e-06,
        "meta_mean_motion_ddot": 0,
        "tle_line1": "1 33933U 93036EN  25360.10776564  .00000720  00000+0  26196-3 0  9999",
        "tle_line2": "2 33933  74.0887  35.7720 0071059  40.2085 320.4292 14.33508908879762"
      },
      "geometry": {
        "type": "Point",
        "coordinates": [
          163.06919355496876,
          70.10795316920091
        ]
      }
    },
    {
      "type": "Feature",
      "properties": {
        "norad_id": 33934,
        "name": "COSMOS 2251 DEB",
        "group": "cosmos-2251-debris",
        "lat": 43.56357362714037,
        "lon": 90.19507001838694,
        "alt_km": 701.0986542681649,
        "timestamp": "2025-12-26T11:25:45.583806+00:00",
        "meta_object_name": "COSMOS 2251 DEB",
        "meta_object_id": "1993-036EP",
        "meta_epoch": "2025-12-25T15:28:29.335008",
        "meta_mean_motion": 14.59210622,
        "meta_eccentricity": 0.0015061,
        "meta_inclination": 74.0379,
        "meta_ra_of_asc_node": 75.9826,
        "meta_arg_of_pericenter": 199.4806,
        "meta_mean_anomaly": 160.5785,
        "meta_ephemeris_type": 0,
        "meta_classification_type": "U",
        "meta_norad_cat_id": 33934,
        "meta_element_set_no": 999,
        "meta_rev_at_epoch": 88927,
        "meta_bstar": 0.00087963,
        "meta_mean_motion_dot": 4.129e-05,
        "meta_mean_motion_ddot": 0,
        "tle_line1": "1 33934U 93036EP  25359.64478397  .00004129  00000+0  87963-3 0  9996",
        "tle_line2": "2 33934  74.0379  75.9826 0015061 199.4806 160.5785 14.59210622889279"
      },
      "geometry": {
        "type": "Point",
        "coordinates": [
          90.19507001838694,
          43.56357362714037
        ]
      }
    },
    {
      "type": "Feature",
      "properties": {
        "norad_id": 33936,
        "name": "COSMOS 2251 DEB",
        "group": "cosmos-2251-debris",
        "lat": 29.103207386361227,
        "lon": 20.408602679229503,
        "alt_km": 703.0728517740645,
        "timestamp": "2025-12-26T11:25:45.583816+00:00",
        "meta_object_name": "COSMOS 2251 DEB",
        "meta_object_id": "1993-036ER",
        "meta_epoch": "2025-12-26T03:04:09.810048",
        "meta_mean_motion": 14.60349671,
        "meta_eccentricity": 0.0026636,
        "meta_inclination": 74.0181,
        "meta_ra_of_asc_node": 11.8941,
        "meta_arg_of_pericenter": 164.036,
        "meta_mean_anomaly": 196.1652,
        "meta_ephemeris_type": 0,
        "meta_classification_type": "U",
        "meta_norad_cat_id": 33936,
        "meta_element_set_no": 999,
        "meta_rev_at_epoch": 89085,
        "meta_bstar": 0.0006189,
        "meta_mean_motion_dot": 2.979e-05,
        "meta_mean_motion_ddot": 0,
        "tle_line1": "1 33936U 93036ER  25360.12789132  .00002979  00000+0  61890-3 0  9997",
        "tle_line2": "2 33936  74.0181  11.8941 0026636 164.0360 196.1652 14.60349671890855"
      },
      "geometry": {
        "type": "Point",
        "coordinates": [
          20.408602679229503,
          29.103207386361227
        ]
      }
    },
    {
      "type": "Feature",
      "properties": {
        "norad_id": 33938,
        "name": "COSMOS 2251 DEB",
        "group": "cosmos-2251-debris",
        "lat": -58.545249340272065,
        "lon": 153.643279195588,
        "alt_km": 732.9698941143997,
        "timestamp": "2025-12-26T11:25:45.583826+00:00",
        "meta_object_name": "COSMOS 2251 DEB",
        "meta_object_id": "1993-036ET",
        "meta_epoch": "2025-12-25T22:59:46.505760",
        "meta_mean_motion": 14.4683273,
        "meta_eccentricity": 0.0016796,
        "meta_inclination": 74.0436,
        "meta_ra_of_asc_node": 182.4964,
        "meta_arg_of_pericenter": 263.6262,
        "meta_mean_anomaly": 216.596,
        "meta_ephemeris_type": 0,
        "meta_classification_type": "U",
        "meta_norad_cat_id": 33938,
        "meta_element_set_no": 999,
        "meta_rev_at_epoch": 88591,
        "meta_bstar": 0.00043301,
        "meta_mean_motion_dot": 1.545e-05,
        "meta_mean_motion_ddot": 0,
        "tle_line1": "1 33938U 93036ET  25359.95817715  .00001545  00000+0  43301-3 0  9992",
        "tle_line2": "2 33938  74.0436 182.4964 0016796 263.6262 216.5960 14.46832730885910"
      },
      "geometry": {
        "type": "Point",
        "coordinates": [
          153.643279195588,
          -58.545249340272065
        ]
      }
    }
  ]
}